[Satellite]
VERSION=1.1
NAME=SALSAT
NICKNAME=SALSAT
TLE1=1 46495U 20068K   25178.42286795  .00005500  00000-0  23709-3 0  9994
TLE2=2 46495  97.8611 157.2785 0013155  99.7122 260.5600 15.22940644261243
STATUS=0
